[{"OBJECT_NAME":"ONEWEB-0292","OBJECT_ID":"2021-083A","EPOCH":"2026-03-09T18:05:27.590784","MEAN_MOTION":13.13472103,"ECCENTRICITY":0.00015434,"INCLINATION":87.9027,"RA_OF_ASC_NODE":340.0294,"ARG_OF_PERICENTER":73.1666,"MEAN_ANOMALY":286.9633,"EPHEMERIS_TYPE":0,"CLASSIFICATION_TYPE":"U","NORAD_CAT_ID":49186,"ELEMENT_SET_NO":999,"REV_AT_EPOCH":21787,"BSTAR":0.00047041726,"MEAN_MOTION_DOT":1.85e-6,"MEAN_MOTION_DDOT":0},{"OBJECT_NAME":"SL-14 DEB","OBJECT_ID":"1991-056AD","EPOCH":"2026-03-08T03:27:34.637760","MEAN_MOTION":13.10892365,"ECCENTRICITY":0.00397963,"INCLINATION":82.5447,"RA_OF_ASC_NODE":227.9716,"ARG_OF_PERICENTER":206.3027,"MEAN_ANOMALY":153.6072,"EPHEMERIS_TYPE":0,"CLASSIFICATION_TYPE":"U","NORAD_CAT_ID":45291,"ELEMENT_SET_NO":999,"REV_AT_EPOCH":28933,"BSTAR":0.00088800904,"MEAN_MOTION_DOT":3.26e-6,"MEAN_MOTION_DDOT":0}]
